NAVSTAR 48 (USA 151)    
1 26407U 00040A   26168.74442747  .00000034  00000+0  00000+0 0  9990
2 26407  54.8513 215.1401 0121038 302.4756  23.6800  2.00557643189956
NAVSTAR 51 (USA 166)    
1 27663U 03005A   26168.23687316  .00000041  00000+0  00000+0 0  9994
2 27663  54.8821 214.9670 0147928  53.0827  42.5968  2.00560527171313
NAVSTAR 54 (USA 177)    
1 28190U 04009A   26168.40442231 -.00000037  00000+0  00000+0 0  9995
2 28190  54.8295 275.6785 0116158 173.0888 196.7015  2.00554656162957
NAVSTAR 56 (USA 180)    
1 28474U 04045A   26168.54931248 -.00000085  00000+0  00000+0 0  9999
2 28474  55.1353 324.8813 0169862 316.4220 222.9263  2.00555810158431
NAVSTAR 57 (USA 183)    
1 28874U 05038A   26168.35669388 -.00000033  00000+0  00000+0 0  9991
2 28874  54.8779 273.1707 0127864 296.1609  67.8202  2.00565592151847
INMARSAT 4-F2           
1 28899U 05044A   26168.62281978 -.00000268  00000+0  00000+0 0  9990
2 28899   5.0965  43.7053 0002834  35.7485 194.1178  1.00270107 75522
NAVSTAR 58 (USA 190)    
1 29486U 06042A   26168.12940993  .00000046  00000+0  00000+0 0  9999
2 29486  54.7108 151.3412 0106617  54.4149  43.9226  2.00569795144391
NAVSTAR 59 (USA 192)    
1 29601U 06052A   26167.42124558  .00000054  00000+0  00000+0 0  9991
2 29601  54.9348 214.0365 0085218  90.8278 270.2339  2.00557832143390
NAVSTAR 60 (USA 196)    
1 32260U 07047A   26167.22762417 -.00000035  00000+0  00000+0 0  9991
2 32260  54.0946  80.1052 0166743  87.3620 274.5508  2.00555202136790
COSMOS 2433 [GLONASS-M] 
1 32275U 07052A   26167.91561709 -.00000055  00000+0  00000+0 0  9992
2 32275  65.5770 315.9429 0002487 193.2709 166.7078  2.13104062145055
COSMOS 2432 [GLONASS-M] 
1 32276U 07052B   26167.51638169 -.00000055  00000+0  00000+0 0  9994
2 32276  65.5946 316.0841 0007678 331.5202  26.0613  2.13103061145065
NAVSTAR 61 (USA 199)    
1 32384U 07062A   26167.53498160 -.00000029  00000+0  00000+0 0  9993
2 32384  55.0322 274.1789 0035702 165.2122 184.0447  2.00560015135492
COSMOS 2434 [GLONASS-M] 
1 32393U 07065A   26168.15492016  .00000065  00000+0  00000+0 0  9998
2 32393  64.3178 191.9169 0001197 336.0402  97.3647  2.13101292143772
COSMOS 2436 [GLONASS-M] 
1 32395U 07065C   26168.82445074  .00000059  00000+0  00000+0 0  9999
2 32395  64.3266 191.9665 0017252 353.9090   5.4477  2.13100053143734
NAVSTAR 62 (USA 201)    
1 32711U 08012A   26168.13613132  .00000044  00000+0  00000+0 0  9994
2 32711  54.4974 149.9267 0211257 247.8479 109.8706  2.00572367133758
NAVSTAR 64 (USA 206)    
1 35752U 09043A   26167.28361034 -.00000073  00000+0  00000+0 0  9996
2 35752  56.2097  27.4871 0053768  83.1336  31.1253  2.00554227123340
COSMOS 2456 [GLONASS-M] 
1 36111U 09070A   26167.15434897 -.00000023  00000+0  00000+0 0  9995
2 36111  65.0107  71.0074 0004648 331.0109 212.9328  2.13103754128409
COSMOS 2457 [GLONASS-M] 
1 36112U 09070B   26168.33070191 -.00000023  00000+0  00000+0 0  9990
2 36112  64.9969  70.8113 0002910 122.4854  11.3241  2.13101088128430
COSMOS 2460 [GLONASS-M] 
1 36402U 10007C   26164.86672859 -.00000052  00000+0  00000+0 0  9999
2 36402  65.4226 314.5793 0002121 106.9290 251.4243  2.13101719126653
NAVSTAR 65 (USA 213)    
1 36585U 10022A   26167.52380442  .00000055  00000+0  00000+0 0  9990
2 36585  54.2702 208.5888 0126308  66.1160 340.2016  2.00562332117589
BEIDOU-2 IGSO-1         
1 36828U 10036A   26168.41907236 -.00000085  00000+0  00000+0 0  9994
2 36828  54.3019 162.9572 0059243 225.3136 135.9154  1.00271925 58107
BEIDOU-2 G4             
1 37210U 10057A   26168.64336749 -.00000119  00000+0  00000+0 0  9991
2 37210   3.6478  68.9400 0005296 196.6539  31.9095  1.00270651 57293
BEIDOU-2 IGSO-2         
1 37256U 10068A   26166.85415660 -.00000214  00000+0  00000+0 0  9990
2 37256  47.5513 271.8488 0055883 212.6776 194.9519  1.00282881 56782
BEIDOU-2 IGSO-3         
1 37384U 11013A   26168.63859422 -.00000188  00000+0  00000+0 0  9999
2 37384  62.4080  40.1465 0034561 184.2780  19.0427  1.00267211 55661
GSAT-8                  
1 37605U 11022A   26168.83641079  .00000078  00000+0  00000+0 0  9991
2 37605   2.1335  81.8184 0002181 199.8074 340.6518  1.00271872 53224
BEIDOU-2 IGSO-4         
1 37763U 11038A   26167.68545095  .00000019  00000+0  00000+0 0  9991
2 37763  54.6000 165.6770 0159519 231.4431 207.9860  1.00285273 54642
GSAT0101 (GALILEO-PFM)  
1 37846U 11060A   26167.84840131 -.00000088  00000+0  00000+0 0  9992
2 37846  56.9944 341.7701 0002997  53.3752 306.6473  1.70475567 91115
GSAT0102 (GALILEO-FM2)  
1 37847U 11060B   26166.59146788 -.00000084  00000+0  00000+0 0  9997
2 37847  56.9958 341.8048 0003167  14.2663 339.9688  1.70475803 91090
COSMOS 2476 [GLONASS-M] 
1 37867U 11064A   26168.20600316 -.00000021  00000+0  00000+0 0  9996
2 37867  65.2698  72.8710 0022714 238.8618 300.2068  2.13103769113765
COSMOS 2477 [GLONASS-M] 
1 37868U 11064B   26168.43725169 -.00000021  00000+0  00000+0 0  9996
2 37868  65.2764  72.9425 0019676 240.1496 296.6640  2.13102918113766
COSMOS 2475 [GLONASS-M] 
1 37869U 11064C   26168.50327304 -.00000021  00000+0  00000+0 0  9994
2 37869  65.2832  72.9620 0025515 253.2487 289.3339  2.13101765113778
